OBJECT_NAME,OBJECT_ID,EPOCH,MEAN_MOTION,ECCENTRICITY,INCLINATION,RA_OF_ASC_NODE,ARG_OF_PERICENTER,MEAN_ANOMALY,EPHEMERIS_TYPE,CLASSIFICATION_TYPE,NORAD_CAT_ID,ELEMENT_SET_NO,REV_AT_EPOCH,BSTAR,MEAN_MOTION_DOT,MEAN_MOTION_DDOT
COSMOS 2251 DEB,1993-036PQ,2024-12-31T17:59:50.555616,15.11527322,0.0040156,74.1584,138.8209,190.1262,302.2578,0,U,34342,999,84834,5.98E-03,1.05E-03,0
COSMOS 2251 DEB,1993-036PR,2024-12-31T19:41:55.728960,14.61743216,0.0024491,74.0237,36.5461,28.1753,145.2455,0,U,34343,999,83661,3.91E-03,1.96E-04,0
COSMOS 2251 DEB,1993-036PS,2024-12-30T11:35:07.256832,14.12924832,0.0167868,73.9817,8.606,269.4302,250.4643,0,U,34344,999,81185,6.10E-03,1.30E-04,0
COSMOS 2251 DEB,1993-036PU,2024-12-30T23:28:36.647616,13.97738887,0.021406,73.9946,193.0476,87.1578,62.2387,0,U,34346,999,80561,2.81E-03,4.80E-05,0
COSMOS 2251 DEB,1993-036PY,2024-12-31T18:22:06.542400,14.82735365,0.0009876,74.0294,275.6877,164.5649,227.1058,0,U,34383,999,83944,6.83E-03,5.57E-04,0
COSMOS 2251 DEB,1993-036QC,2024-12-31T19:04:12.686592,14.42616299,0.0040095,74.0415,134.3478,317.5292,193.1183,0,U,34387,999,83190,1.25E-03,4.18E-05,0
COSMOS 2251 DEB,1993-036QD,2024-12-31T16:18:51.863616,14.46546573,0.0014653,74.0402,150.8285,288.6255,82.7953,0,U,34388,999,83146,2.77E-03,9.98E-05,0
COSMOS 2251 DEB,1993-036QE,2024-12-31T22:07:17.536800,14.40175198,0.0029781,74.0184,170.4299,7.0489,144.8932,0,U,34389,999,83031,1.39E-03,4.40E-05,0
COSMOS 2251 DEB,1993-036QF,2024-12-31T19:22:19.474176,14.94331072,0.0033702,74.0764,253.0547,322.3821,148.613,0,U,34390,999,84084,6.17E-03,6.77E-04,0
COSMOS 2251 DEB,1993-036QM,2024-12-30T05:51:34.774272,14.63931608,0.0009706,74.035,77.3238,246.9804,177.9034,0,U,34396,999,83242,5.04E-03,2.64E-04,0
COSMOS 2251 DEB,1993-036QR,2024-12-31T19:16:32.279232,14.98753968,0.0042846,73.9927,29.1191,277.2025,82.4291,0,U,34400,999,84724,5.40E-03,6.69E-04,0
COSMOS 2251 DEB,1993-036QS,2024-12-31T15:40:07.212864,15.0774513,0.0021554,74.0285,247.442,50.8097,2.2729,0,U,34401,999,84203,8.06E-03,1.26E-03,0
COSMOS 2251 DEB,1993-036RA,2024-12-31T10:40:08.104800,14.57032049,0.00806,74.0633,244.0357,49.0057,123.3204,0,U,34409,999,84147,6.11E-04,2.84E-05,0
COSMOS 2251 DEB,1993-036RB,2024-12-31T11:25:49.702080,14.92590935,0.0042264,73.7555,262.8826,171.7256,1.0999,0,U,34410,999,84659,3.51E-03,3.69E-04,0
COSMOS 2251 DEB,1993-036RD,2024-12-31T02:53:28.495680,14.42643508,0.0200459,73.9491,254.1849,67.5346,294.6901,0,U,34412,999,82644,3.27E-03,1.39E-04,0
COSMOS 2251 DEB,1993-036RE,2024-12-31T06:14:05.426592,14.25847151,0.0095406,74.0311,172.5961,333.5792,202.6361,0,U,34413,999,82186,3.19E-03,7.94E-05,0
COSMOS 2251 DEB,1993-036RM,2024-12-31T21:31:54.340608,14.67102683,0.0109512,74.0347,52.31,261.7753,151.955,0,U,34420,999,84696,6.66E-04,4.06E-05,0
COSMOS 2251 DEB,1993-036RS,2024-12-30T17:25:43.518432,14.58559998,0.0028303,74.0241,357.9046,213.864,146.0719,0,U,34425,999,83674,3.56E-03,1.67E-04,0
COSMOS 2251 DEB,1993-036RV,2024-12-31T15:18:22.394016,15.04260575,0.0010778,74.0179,319.0039,144.838,28.4023,0,U,34428,999,83754,9.49E-03,1.35E-03,0
COSMOS 2251 DEB,1993-036RW,2024-12-31T20:48:44.847072,14.90892779,0.0029949,73.9958,164.0532,41.0901,123.0737,0,U,34429,999,84228,6.21E-03,6.23E-04,0
COSMOS 2251 DEB,1993-036RX,2024-12-31T08:21:15.688800,14.38364434,0.0061464,74.0505,221.8559,18.8801,341.4612,0,U,34430,999,82972,1.07E-03,3.31E-05,0
COSMOS 2251 DEB,1993-036RY,2024-12-30T16:16:58.902528,14.27295119,0.0067945,74.0776,82.7316,156.4083,204.0207,0,U,34431,999,82188,2.12E-03,5.30E-05,0
COSMOS 2251 DEB,1993-036RZ,2024-12-31T19:18:05.366592,14.01707744,0.0183031,73.8307,351.2097,135.8244,295.6867,0,U,34432,999,80835,1.57E-03,2.73E-05,0
COSMOS 2251 DEB,1993-036SA,2024-12-30T20:31:55.639776,14.10072994,0.0162106,74.0175,47.9221,263.619,94.6467,0,U,34433,999,81055,5.69E-03,1.13E-04,0
COSMOS 2251 DEB,1993-036SB,2024-12-31T18:25:36.696576,13.84892769,0.0295339,74.0602,236.2547,92.8685,18.9622,0,U,34434,999,79168,7.11E-03,1.13E-04,0
COSMOS 2251 DEB,1993-036SK,2024-12-31T09:29:39.452928,15.0917093,0.0038244,74.0018,42.3472,271.9093,87.7719,0,U,34442,999,84711,4.99E-03,8.14E-04,0
COSMOS 2251 DEB,1993-036SP,2024-12-31T17:49:29.839872,14.48772183,0.0052219,74.042,345.8431,210.6129,149.1982,0,U,34446,999,83682,4.76E-04,1.80E-05,0
COSMOS 2251 DEB,1993-036SS,2024-12-31T13:19:27.062976,14.74949099,0.0035211,74.0413,37.2327,189.3996,323.5113,0,U,34449,999,83556,5.36E-03,3.65E-04,0
COSMOS 2251 DEB,1993-036SU,2024-12-31T09:41:09.966912,14.74782277,0.0034523,74.0533,54.6356,188.6955,171.3625,0,U,34451,999,83495,5.45E-03,3.70E-04,0
COSMOS 2251 DEB,1993-036SV,2024-12-31T20:45:26.182368,15.00076673,0.0082209,74.0372,172.2434,343.3914,85.5819,0,U,34452,999,85456,1.78E-03,2.38E-04,0
