COSMOS 2251 DEB         
1 34342U 93036PQ  24366.74989069  .00104788  00000+0  59811-2 0  9993
2 34342  74.1584 138.8209 0040156 190.1262 302.2578 15.11527322848348
COSMOS 2251 DEB         
1 34343U 93036PR  24366.82078390  .00019627  00000+0  39142-2 0  9991
2 34343  74.0237  36.5461 0024491  28.1753 145.2455 14.61743216836618
COSMOS 2251 DEB         
1 34344U 93036PS  24365.48272288  .00012981  00000+0  60994-2 0  9990
2 34344  73.9817   8.6060 0167868 269.4302 250.4643 14.12924832811850
COSMOS 2251 DEB         
1 34346U 93036PU  24365.97820194  .00004803  00000+0  28092-2 0  9998
2 34346  73.9946 193.0476 0214060  87.1578  62.2387 13.97738887805618
COSMOS 2251 DEB         
1 34383U 93036PY  24366.76535350  .00055651  00000+0  68322-2 0  9991
2 34383  74.0294 275.6877 0009876 164.5649 227.1058 14.82735365839443
COSMOS 2251 DEB         
1 34387U 93036QC  24366.79459128  .00004184  00000+0  12547-2 0  9999
2 34387  74.0415 134.3478 0040095 317.5292 193.1183 14.42616299831906
COSMOS 2251 DEB         
1 34388U 93036QD  24366.67976694  .00009980  00000+0  27695-2 0  9998
2 34388  74.0402 150.8285 0014653 288.6255  82.7953 14.46546573831460
COSMOS 2251 DEB         
1 34389U 93036QE  24366.92173075  .00004400  00000+0  13924-2 0  9991
2 34389  74.0184 170.4299 0029781   7.0489 144.8932 14.40175198830316
COSMOS 2251 DEB         
1 34390U 93036QF  24366.80716984  .00067698  00000+0  61704-2 0  9999
2 34390  74.0764 253.0547 0033702 322.3821 148.6130 14.94331072840842
COSMOS 2251 DEB         
1 34396U 93036QM  24365.24415248  .00026448  00000+0  50362-2 0  9997
2 34396  74.0350  77.3238 0009706 246.9804 177.9034 14.63931608832422
COSMOS 2251 DEB         
1 34400U 93036QR  24366.80315138  .00066864  00000+0  54005-2 0  9997
2 34400  73.9927  29.1191 0042846 277.2025  82.4291 14.98753968847243
COSMOS 2251 DEB         
1 34401U 93036QS  24366.65286126  .00125973  00000+0  80603-2 0  9995
2 34401  74.0285 247.4420 0021554  50.8097   2.2729 15.07745130842031
COSMOS 2251 DEB         
1 34409U 93036RA  24366.44453825  .00002843  00000+0  61072-3 0  9992
2 34409  74.0633 244.0357 0080600  49.0057 123.3204 14.57032049841473
COSMOS 2251 DEB         
1 34410U 93036RB  24366.47626970  .00036916  00000+0  35111-2 0  9992
2 34410  73.7555 262.8826 0042264 171.7256   1.0999 14.92590935846594
COSMOS 2251 DEB         
1 34412U 93036RD  24366.12046870  .00013872  00000+0  32743-2 0  9995
2 34412  73.9491 254.1849 0200459  67.5346 294.6901 14.42643508826445
COSMOS 2251 DEB         
1 34413U 93036RE  24366.25978503  .00007937  00000+0  31874-2 0  9996
2 34413  74.0311 172.5961 0095406 333.5792 202.6361 14.25847151821863
COSMOS 2251 DEB         
1 34420U 93036RM  24366.89715672  .00004063  00000+0  66648-3 0  9995
2 34420  74.0347  52.3100 0109512 261.7753 151.9550 14.67102683846967
COSMOS 2251 DEB         
1 34425U 93036RS  24365.72619813  .00016672  00000+0  35626-2 0  9991
2 34425  74.0241 357.9046 0028303 213.8640 146.0719 14.58559998836741
COSMOS 2251 DEB         
1 34428U 93036RV  24366.63775919  .00134733  00000+0  94899-2 0  9991
2 34428  74.0179 319.0039 0010778 144.8380  28.4023 15.04260575837548
COSMOS 2251 DEB         
1 34429U 93036RW  24366.86718573  .00062275  00000+0  62095-2 0  9994
2 34429  73.9958 164.0532 0029949  41.0901 123.0737 14.90892779842287
COSMOS 2251 DEB         
1 34430U 93036RX  24366.34809825  .00003306  00000+0  10695-2 0  9999
2 34430  74.0505 221.8559 0061464  18.8801 341.4612 14.38364434829725
COSMOS 2251 DEB         
1 34431U 93036RY  24365.67845952  .00005295  00000+0  21199-2 0  9996
2 34431  74.0776  82.7316 0067945 156.4083 204.0207 14.27295119821886
COSMOS 2251 DEB         
1 34432U 93036RZ  24366.80422878  .00002729  00000+0  15671-2 0  9998
2 34432  73.8307 351.2097 0183031 135.8244 295.6867 14.01707744808358
COSMOS 2251 DEB         
1 34433U 93036SA  24365.85550509  .00011343  00000+0  56879-2 0  9993
2 34433  74.0175  47.9221 0162106 263.6190  94.6467 14.10072994810553
COSMOS 2251 DEB         
1 34434U 93036SB  24366.76778584  .00011270  00000+0  71149-2 0  9996
2 34434  74.0602 236.2547 0295339  92.8685  18.9622 13.84892769791683
COSMOS 2251 DEB         
1 34442U 93036SK  24366.39559552  .00081420  00000+0  49851-2 0  9995
2 34442  74.0018  42.3472 0038244 271.9093  87.7719 15.09170930847118
COSMOS 2251 DEB         
1 34446U 93036SP  24366.74270648  .00001798  00000+0  47559-3 0  9998
2 34446  74.0420 345.8431 0052219 210.6129 149.1982 14.48772183836824
COSMOS 2251 DEB         
1 34449U 93036SS  24366.55517434  .00036525  00000+0  53573-2 0  9995
2 34449  74.0413  37.2327 0035211 189.3996 323.5113 14.74949099835567
COSMOS 2251 DEB         
1 34451U 93036SU  24366.40358758  .00036997  00000+0  54494-2 0  9990
2 34451  74.0533  54.6356 0034523 188.6955 171.3625 14.74782277834952
COSMOS 2251 DEB         
1 34452U 93036SV  24366.86488637  .00023839  00000+0  17780-2 0  9999
2 34452  74.0372 172.2434 0082209 343.3914  85.5819 15.00076673854563
